[{"OBJECT_NAME":"FLOCK 4BE-19","OBJECT_ID":"2024-149CZ","EPOCH":"2026-03-29T05:15:59.615136","MEAN_MOTION":15.41246794,"ECCENTRICITY":0.0004263,"INCLINATION":97.3762,"RA_OF_ASC_NODE":172.6964,"ARG_OF_PERICENTER":200.5878,"MEAN_ANOMALY":159.5198,"EPHEMERIS_TYPE":0,"CLASSIFICATION_TYPE":"U","NORAD_CAT_ID":60563,"ELEMENT_SET_NO":999,"REV_AT_EPOCH":9009,"BSTAR":0.00075239,"MEAN_MOTION_DOT":0.00031288,"MEAN_MOTION_DDOT":0},{"OBJECT_NAME":"PELICAN-2","OBJECT_ID":"2025-009Y","EPOCH":"2026-03-29T05:10:46.448832","MEAN_MOTION":15.40259257,"ECCENTRICITY":0.0005109,"INCLINATION":97.3986,"RA_OF_ASC_NODE":178.7529,"ARG_OF_PERICENTER":157.136,"MEAN_ANOMALY":203.0114,"EPHEMERIS_TYPE":0,"CLASSIFICATION_TYPE":"U","NORAD_CAT_ID":62631,"ELEMENT_SET_NO":999,"REV_AT_EPOCH":6724,"BSTAR":0.0016275,"MEAN_MOTION_DOT":0.00065906,"MEAN_MOTION_DDOT":0},{"OBJECT_NAME":"PELICAN-3","OBJECT_ID":"2025-188A","EPOCH":"2026-03-29T03:51:18.997056","MEAN_MOTION":15.40635324,"ECCENTRICITY":0.0005071,"INCLINATION":97.2198,"RA_OF_ASC_NODE":165.4787,"ARG_OF_PERICENTER":201.1681,"MEAN_ANOMALY":158.9356,"EPHEMERIS_TYPE":0,"CLASSIFICATION_TYPE":"U","NORAD_CAT_ID":65315,"ELEMENT_SET_NO":999,"REV_AT_EPOCH":3299,"BSTAR":0.00067182,"MEAN_MOTION_DOT":0.0002736,"MEAN_MOTION_DDOT":0},{"OBJECT_NAME":"PELICAN-4","OBJECT_ID":"2025-188B","EPOCH":"2026-03-29T04:13:48.744768","MEAN_MOTION":15.40655465,"ECCENTRICITY":0.0003739,"INCLINATION":97.2289,"RA_OF_ASC_NODE":165.6082,"ARG_OF_PERICENTER":211.8762,"MEAN_ANOMALY":148.2258,"EPHEMERIS_TYPE":0,"CLASSIFICATION_TYPE":"U","NORAD_CAT_ID":65316,"ELEMENT_SET_NO":999,"REV_AT_EPOCH":3299,"BSTAR":0.00026221,"MEAN_MOTION_DOT":0.00010611,"MEAN_MOTION_DDOT":0}]
