FLOCK 4BE-19            
1 60563U 24149CZ  26088.21943999  .00031288  00000+0  75239-3 0  9990
2 60563  97.3762 172.6964 0004263 200.5878 159.5198 15.41246794 90095
PELICAN-2               
1 62631U 25009Y   26088.21581538  .00065906  00000+0  16275-2 0  9999
2 62631  97.3986 178.7529 0005109 157.1360 203.0114 15.40259257 67249
PELICAN-3               
1 65315U 25188A   26088.16063654  .00027360  00000+0  67182-3 0  9993
2 65315  97.2198 165.4787 0005071 201.1681 158.9356 15.40635324 32991
PELICAN-4               
1 65316U 25188B   26088.17625862  .00010611  00000+0  26221-3 0  9990
2 65316  97.2289 165.6082 0003739 211.8762 148.2258 15.40655465 32991
